CTC2_L_00462001-01
1 83684U 24379GY  26037.47796296  .00000000  00000+0  00000-0 0  9991
2 83684  35.0000   0.0000 0000000   0.0000   0.0000 15.21936321    13
CTC2_L_00462002-01
1 83685U 22793TM  26037.47796296  .00000000  00000+0  00000-0 0  9990
2 83685  35.0000  12.0000 0000000   0.0000  48.0000 15.21936321    19
CTC2_L_00462003-01
1 83686U 24097RW  26037.47796296  .00000000  00000+0  00000-0 0  9990
2 83686  35.0000  24.0000 0000000   0.0000  96.0000 15.21936321    16
CTC2_L_00462004-01
1 83687U 25996NR  26037.47796296  .00000000  00000+0  00000-0 0  9990
2 83687  35.0000  36.0000 0000000   0.0000 144.0000 15.21936321    14
CTC2_L_00462005-01
1 83688U 22880IU  26037.47796296  .00000000  00000+0  00000-0 0  9990
2 83688  35.0000  48.0000 0000000   0.0000 192.0000 15.21936321    11
CTC2_L_00462006-01
1 83689U 22460XD  26037.47796296  .00000000  00000+0  00000-0 0  9995
2 83689  35.0000  60.0000 0000000   0.0000 240.0000 15.21936321    10
CTC2_L_00462007-01
1 83690U 24856FQ  26037.47796296  .00000000  00000+0  00000-0 0  9998
2 83690  35.0000  72.0000 0000000   0.0000 288.0000 15.21936321    17
CTC2_L_00462008-01
1 83691U 25521OA  26037.47796296  .00000000  00000+0  00000-0 0  9999
2 83691  35.0000  84.0000 0000000   0.0000 336.0000 15.21936321    15
CTC2_L_00462009-01
1 83692U 26078ZY  26037.47796296  .00000000  00000+0  00000-0 0  9998
2 83692  35.0000  96.0000 0000000   0.0000  24.0000 15.21936321    13
CTC2_L_00462010-01
1 83693U 23719XF  26037.47796296  .00000000  00000+0  00000-0 0  9998
2 83693  35.0000 108.0000 0000000   0.0000  72.0000 15.21936321    11
CTC2_L_00462011-01
1 83694U 25395YR  26037.47796296  .00000000  00000+0  00000-0 0  9991
2 83694  35.0000 120.0000 0000000   0.0000 120.0000 15.21936321    10
CTC2_L_00462012-01
1 83695U 25218MO  26037.47796296  .00000000  00000+0  00000-0 0  9996
2 83695  35.0000 132.0000 0000000   0.0000 168.0000 15.21936321    16
CTC2_L_00462013-01
1 83696U 24926JY  26037.47796296  .00000000  00000+0  00000-0 0  9992
2 83696  35.0000 144.0000 0000000   0.0000 216.0000 15.21936321    14
CTC2_L_00462014-01
1 83697U 23888PR  26037.47796296  .00000000  00000+0  00000-0 0  9999
2 83697  35.0000 156.0000 0000000   0.0000 264.0000 15.21936321    11
CTC2_L_00462015-01
1 83698U 23678NB  26037.47796296  .00000000  00000+0  00000-0 0  9997
2 83698  35.0000 168.0000 0000000   0.0000 312.0000 15.21936321    19
CTC2_L_00462016-01
1 83699U 25871WX  26037.47796296  .00000000  00000+0  00000-0 0  9995
2 83699  35.0000 180.0000 0000000   0.0000   0.0000 15.21936321    18
CTC2_L_00462017-01
1 83700U 25398AZ  26037.47796296  .00000000  00000+0  00000-0 0  9992
2 83700  35.0000 192.0000 0000000   0.0000  48.0000 15.21936321    16
CTC2_L_00462018-01
1 83701U 23695KF  26037.47796296  .00000000  00000+0  00000-0 0  9991
2 83701  35.0000 204.0000 0000000   0.0000  96.0000 15.21936321    14
CTC2_L_00462019-01
1 83702U 26415VG  26037.47796296  .00000000  00000+0  00000-0 0  9995
2 83702  35.0000 216.0000 0000000   0.0000 144.0000 15.21936321    12
CTC2_L_00462020-01
1 83703U 26317JD  26037.47796296  .00000000  00000+0  00000-0 0  9997
2 83703  35.0000 228.0000 0000000   0.0000 192.0000 15.21936321    19
CTC2_L_00462021-01
1 83704U 23107DQ  26037.47796296  .00000000  00000+0  00000-0 0  9992
2 83704  35.0000 240.0000 0000000   0.0000 240.0000 15.21936321    18
CTC2_L_00462022-01
1 83705U 22364RO  26037.47796296  .00000000  00000+0  00000-0 0  9997
2 83705  35.0000 252.0000 0000000   0.0000 288.0000 15.21936321    14
CTC2_L_00462023-01
1 83706U 22914IF  26037.47796296  .00000000  00000+0  00000-0 0  9999
2 83706  35.0000 264.0000 0000000   0.0000 336.0000 15.21936321    12
CTC2_L_00462024-01
1 83707U 26636YY  26037.47796296  .00000000  00000+0  00000-0 0  9995
2 83707  35.0000 276.0000 0000000   0.0000  24.0000 15.21936321    10
CTC2_L_00462025-01
1 83708U 22460FD  26037.47796296  .00000000  00000+0  00000-0 0  9997
2 83708  35.0000 288.0000 0000000   0.0000  72.0000 15.21936321    17
CTC2_L_00462026-01
1 83709U 22675OM  26037.47796296  .00000000  00000+0  00000-0 0  9996
2 83709  35.0000 300.0000 0000000   0.0000 120.0000 15.21936321    17
CTC2_L_00462027-01
1 83710U 26702PO  26037.47796296  .00000000  00000+0  00000-0 0  9993
2 83710  35.0000 312.0000 0000000   0.0000 168.0000 15.21936321    14
CTC2_L_00462028-01
1 83711U 22121QI  26037.47796296  .00000000  00000+0  00000-0 0  9995
2 83711  35.0000 324.0000 0000000   0.0000 216.0000 15.21936321    12
CTC2_L_00462029-01
1 83712U 22933XG  26037.47796296  .00000000  00000+0  00000-0 0  9997
2 83712  35.0000 336.0000 0000000   0.0000 264.0000 15.21936321    19
CTC2_L_00462030-01
1 83713U 23927AA  26037.47796296  .00000000  00000+0  00000-0 0  9992
2 83713  35.0000 348.0000 0000000   0.0000 312.0000 15.21936321    17
